GSAT0204 (GALILEO 8)    
1 40545U 15017B   26058.19060141 -.00000102  00000+0  00000+0 0  9997
2 40545  56.8295 344.6151 0004389 286.3298  73.6287  1.70475370 30371
BEIDOU-3S IGSO-1S       
1 40549U 15019A   26059.61069309 -.00000157  00000+0  00000+0 0  9996
2 40549  49.3974 296.7700 0035838 190.4090 347.5851  1.00274522 39986
NAVSTAR 74 (USA 262)    
1 40730U 15033A   26060.52586451  .00000011  00000+0  00000+0 0  9996
2 40730  54.0667 271.5237 0114429  28.9222 331.7504  2.00561672 77834
BEIDOU-3S M2S           
1 40748U 15037A   26059.85953472 -.00000044  00000+0  00000+0 0  9991
2 40748  54.9658 305.7779 0009018 278.2696  81.6874  1.86231837 72101
BEIDOU-3S M1S           
1 40749U 15037B   26060.08018090 -.00000045  00000+0  00000+0 0  9998
2 40749  54.9622 305.7581 0004531  29.0450 331.0396  1.86253680 72111
GSAT0205 (GALILEO 9)    
1 40889U 15045A   26043.95434207  .00000078  00000+0  00000+0 0  9996
2 40889  53.6403 225.6057 0359599  59.9658 303.5577  1.67410800 64211
GSAT0206 (GALILEO 10)   
1 40890U 15045B   26059.93922248  .00000021  00000+0  00000+0 0  9998
2 40890  54.9818 224.5901 0003875  49.7770 310.2097  1.70473640 65193
NAVSTAR 75 (USA 265)    
1 41019U 15062A   26060.08613942 -.00000061  00000+0  00000+0 0  9992
2 41019  56.8906  34.9758 0111464 231.4723 127.5197  2.00567016 75669
GSAT-15                 
1 41028U 15065A   26060.51209998 -.00000276  00000+0  00000+0 0  9993
2 41028   0.0966 270.0443 0000759  71.3012  95.8011  1.00269657 37711
GSAT0209 (GALILEO 12)   
1 41174U 15079A   26057.76103078  .00000003  00000+0  00000+0 0  9992
2 41174  55.7556 104.2904 0004770 323.2858  36.7546  1.70474460 62890
GSAT0208 (GALILEO 11)   
1 41175U 15079B   26056.80807684  .00000001  00000+0  00000+0 0  9999
2 41175  55.7531 104.3136 0003630 328.1967  31.8517  1.70474379 63299
IRNSS-1E                
1 41241U 16003A   26051.61610370 -.00000285  00000+0  00000+0 0  9994
2 41241  32.9803  61.4290 0018329 191.6255 230.9097  1.00267075 36910
NAVSTAR 76 (USA 266)    
1 41328U 16007A   26060.17136941  .00000020  00000+0  00000+0 0  9998
2 41328  55.4534  93.7411 0095351 245.9160 113.1547  2.00556836 73671
COSMOS 2514 [GLONASS-M] 
1 41330U 16008A   26059.88614037 -.00000044  00000+0  00000+0 0  9992
2 41330  65.0848 316.7259 0009196 210.1787 149.8230  2.13102585 78311
IRNSS-1F                
1 41384U 16015A   26060.23966530  .00000140  00000+0  00000+0 0  9994
2 41384   5.0765  99.3499 0019258 187.7673 350.6178  1.00269565 36588
BEIDOU-2 IGSO-6         
1 41434U 16021A   26060.39505934 -.00000141  00000+0  00000+0 0  9993
2 41434  60.0821  39.1080 0059813 233.4424 124.5580  1.00278678 36399
IRNSS-1G                
1 41469U 16027A   26060.46155991 -.00000352  00000+0  00000+0 0  9993
2 41469   4.9279 100.0887 0005208 313.4936  41.3920  1.00270060 36098
GSAT0211 (GALILEO 14)   
1 41549U 16030A   26059.86498967  .00000022  00000+0  00000+0 0  9994
2 41549  55.1331 224.6708 0003612  25.8788 334.0929  1.70473700 60827
GSAT0210 (GALILEO 13)   
1 41550U 16030B   26058.36253702  .00000038  00000+0  00000+0 0  9993
2 41550  55.1319 224.7103 0001081 189.8434 170.1193  1.70473795 60794
BEIDOU-2 G7             
1 41586U 16037A   26060.46907300 -.00000371  00000+0  00000+0 0  9994
2 41586   1.4538  68.1480 0007327 341.2540  29.2606  1.00268635  5812
EUTELSAT 117 WEST B     
1 41589U 16038B   26060.36017102 -.00000030  00000+0  00000+0 0  9991
2 41589   0.0094 266.0601 0000048   1.8742 263.8885  1.00271438 35584
GSAT0207 (GALILEO 15)   
1 41859U 16069A   26059.22748061  .00000008  00000+0  00000+0 0  9997
2 41859  55.4267 104.1007 0005031 309.1503  50.8842  1.70474383 57546
GSAT0212 (GALILEO 16)   
1 41860U 16069B   26058.49445287  .00000005  00000+0  00000+0 0  9998
2 41860  55.4238 104.1162 0003541 336.3420  23.7177  1.70474549 57782
GSAT0213 (GALILEO 17)   
1 41861U 16069C   26058.27531726  .00000004  00000+0  00000+0 0  9998
2 41861  55.4260 104.1303 0005130 291.6331  68.3872  1.70474834 57644
GSAT0214 (GALILEO 18)   
1 41862U 16069D   26059.00795760  .00000007  00000+0  00000+0 0  9994
2 41862  55.4250 104.1026 0004132 296.1582  63.8775  1.70474701 57785
SES-15                  
1 42709U 17026A   26060.51768826  .00000042  00000+0  00000+0 0  9999
2 42709   0.0448 306.0602 0000700  20.5059 249.9271  1.00269675  6359
QZS-2 (MICHIBIKI-2)     
1 42738U 17028A   26059.38847589 -.00000151  00000+0  00000+0 0  9992
2 42738  39.5962 244.7382 0746218 270.2963 284.7801  1.00263058  6536
QZS-3 (MICHIBIKI-3)     
1 42917U 17048A   26060.46711506 -.00000367  00000+0  00000+0 0  9992
2 42917   0.0656 139.3123 0001538 199.1210 115.9626  1.00266891 31179
COSMOS 2522 [GLONASS-M] 
1 42939U 17055A   26059.72403422 -.00000010  00000+0  00000+0 0  9991
2 42939  64.0795 195.5727 0007072 226.3885 133.5140  2.13101626 65668
QZS-4 (MICHIBIKI-4)     
1 42965U 17062A   26052.57384556 -.00000296  00000+0  00000+0 0  9996
2 42965  40.1802 344.9639 0749564 269.6050 243.6917  1.00283220 30647
BEIDOU-3 M1             
1 43001U 17069A   26059.66807218  .00000002  00000+0  00000+0 0  9991
2 43001  56.5977  66.6575 0012364 309.3656  50.5651  1.86230790 56584
