OBJECT_NAME,OBJECT_ID,EPOCH,MEAN_MOTION,ECCENTRICITY,INCLINATION,RA_OF_ASC_NODE,ARG_OF_PERICENTER,MEAN_ANOMALY,EPHEMERIS_TYPE,CLASSIFICATION_TYPE,NORAD_CAT_ID,ELEMENT_SET_NO,REV_AT_EPOCH,BSTAR,MEAN_MOTION_DOT,MEAN_MOTION_DDOT
GSAT0204 (GALILEO 8),2015-017B,2026-02-27T04:34:27.961824,1.70475370,.00043897,56.8295,344.6151,286.3298,73.6287,0,U,40545,999,3037,0,-.102E-5,0
BEIDOU-3S IGSO-1S (C31),2015-019A,2026-02-28T14:39:23.882976,1.00274522,.00358388,49.3974,296.7700,190.4090,347.5851,0,U,40549,999,3998,0,-.157E-5,0
GPS BIIF-10 (PRN 08),2015-033A,2026-03-01T12:37:14.693664,2.00561672,.0114429,54.0667,271.5237,28.9222,331.7504,0,U,40730,999,7783,0,.11E-6,0
BEIDOU-3S M2S (C58),2015-037A,2026-02-28T20:37:43.799808,1.86231837,.00090189,54.9658,305.7779,278.2696,81.6874,0,U,40748,999,7210,0,-.44E-6,0
BEIDOU-3S M1S (C57),2015-037B,2026-03-01T01:55:27.629760,1.86253680,.0004531,54.9622,305.7581,29.0450,331.0396,0,U,40749,999,7211,0,-.45E-6,0
GSAT0205 (GALILEO 9),2015-045A,2026-02-12T22:54:15.154848,1.67410800,.03595998,53.6403,225.6057,59.9658,303.5577,0,U,40889,999,6421,0,.78E-6,0
GSAT0206 (GALILEO 10),2015-045B,2026-02-28T22:32:28.822272,1.70473640,.0003875,54.9818,224.5901,49.7770,310.2097,0,U,40890,999,6519,0,.21E-6,0
GPS BIIF-11 (PRN 10),2015-062A,2026-03-01T02:04:02.445888,2.00567016,.0111464,56.8906,34.9758,231.4723,127.5197,0,U,41019,999,7566,0,-.61E-6,0
GSAT-15 (GAGAN/PRN 139),2015-065A,2026-03-01T12:17:25.438272,1.00269657,.0000759,0.0966,270.0443,71.3012,95.8011,0,U,41028,999,3771,0,-.276E-5,0
GSAT0209 (GALILEO 12),2015-079A,2026-02-26T18:15:53.059392,1.70474460,.00047705,55.7556,104.2904,323.2858,36.7546,0,U,41174,999,6289,0,.3E-7,0
GSAT0208 (GALILEO 11),2015-079B,2026-02-25T19:23:37.838976,1.70474379,.000363,55.7531,104.3136,328.1967,31.8517,0,U,41175,999,6329,0,.1E-7,0
IRNSS-1E,2016-003A,2026-02-20T14:47:11.359680,1.00267075,.00183295,32.9803,61.4290,191.6255,230.9097,0,U,41241,999,3691,0,-.285E-5,0
GPS BIIF-12 (PRN 32),2016-007A,2026-03-01T04:06:46.317024,2.00556836,.00953512,55.4534,93.7411,245.9160,113.1547,0,U,41328,999,7367,0,.2E-6,0
COSMOS 2514 (751),2016-008A,2026-02-28T21:16:02.527968,2.13102585,.00091961,65.0848,316.7259,210.1787,149.8230,0,U,41330,999,7831,0,-.44E-6,0
IRNSS-1F,2016-015A,2026-03-01T05:45:07.081920,1.00269565,.0019258,5.0765,99.3499,187.7673,350.6178,0,U,41384,999,3658,0,.14E-5,0
BEIDOU-2 IGSO-6 (C13),2016-021A,2026-03-01T09:28:53.126976,1.00278678,.0059813,60.0821,39.1080,233.4424,124.5580,0,U,41434,999,3639,0,-.141E-5,0
IRNSS-1G,2016-027A,2026-03-01T11:04:38.776224,1.00270060,.0005208,4.9279,100.0887,313.4936,41.3920,0,U,41469,999,3609,0,-.352E-5,0
GSAT0211 (GALILEO 14),2016-030A,2026-02-28T20:45:35.107488,1.70473700,.00036129,55.1331,224.6708,25.8788,334.0929,0,U,41549,999,6082,0,.22E-6,0
GSAT0210 (GALILEO 13),2016-030B,2026-02-27T08:42:03.198528,1.70473795,.00010813,55.1319,224.7103,189.8434,170.1193,0,U,41550,999,6079,0,.38E-6,0
BEIDOU-2 G7 (C03),2016-037A,2026-03-01T11:15:27.907200,1.00268635,.0007327,1.4538,68.1480,341.2540,29.2606,0,U,41586,999,581,0,-.371E-5,0
EUTELSAT 117 WEST B (WAAS/PRN 131),2016-038B,2026-03-01T08:38:38.776128,1.00271438,.0000048,0.0094,266.0601,1.8742,263.8885,0,U,41589,999,3558,0,-.3E-6,0
GSAT0207 (GALILEO 15),2016-069A,2026-02-28T05:27:34.324704,1.70474383,.00050316,55.4267,104.1007,309.1503,50.8842,0,U,41859,999,5754,0,.8E-7,0
GSAT0212 (GALILEO 16),2016-069B,2026-02-27T11:52:00.727968,1.70474549,.00035416,55.4238,104.1162,336.3420,23.7177,0,U,41860,999,5778,0,.5E-7,0
GSAT0213 (GALILEO 17),2016-069C,2026-02-27T06:36:27.411264,1.70474834,.00051302,55.4260,104.1303,291.6331,68.3872,0,U,41861,999,5764,0,.4E-7,0
GSAT0214 (GALILEO 18),2016-069D,2026-02-28T00:11:27.536640,1.70474701,.00041329,55.4250,104.1026,296.1582,63.8775,0,U,41862,999,5778,0,.7E-7,0
SES-15 (WAAS/PRN 133),2017-026A,2026-03-01T12:25:28.265664,1.00269675,.00007,0.0448,306.0602,20.5059,249.9271,0,U,42709,999,635,0,.42E-6,0
QZS-2 (QZSS/PRN 194),2017-028A,2026-02-28T09:19:24.316896,1.00263058,.07462183,39.5962,244.7382,270.2963,284.7801,0,U,42738,999,653,0,-.151E-5,0
QZS-3 (QZSS/PRN 199),2017-048A,2026-03-01T11:12:38.741184,1.00266891,.0001538,0.0656,139.3123,199.1210,115.9626,0,U,42917,999,3117,0,-.367E-5,0
COSMOS 2522 (752),2017-055A,2026-02-28T17:22:36.556608,2.13101626,.00070721,64.0795,195.5727,226.3885,133.5140,0,U,42939,999,6566,0,-.1E-6,0
QZS-4 (QZSS/PRN 195),2017-062A,2026-02-21T13:46:20.256384,1.00283220,.0749564,40.1802,344.9639,269.6050,243.6917,0,U,42965,999,3064,0,-.296E-5,0
BEIDOU-3 M1 (C19),2017-069A,2026-02-28T16:02:01.436352,1.86230790,.0012364,56.5977,66.6575,309.3656,50.5651,0,U,43001,999,5658,0,.2E-7,0
